ORBCOMM FM33            
1 25983U 99065D   24247.49100144  .00003817  00000+0  12894-2 0  9992
2 25983  45.0278 280.4170 0006835  45.6862 314.4546 14.38256061294761
ORBCOMM FM36            
1 25984U 99065E   24247.55998719  .00005499  00000+0  19134-2 0  9995
2 25984  45.0411   7.5492 0004325 272.2694  87.7659 14.36226620293185
ORBCOMM FM35            
1 25985U 99065F   24247.64206336  .00003952  00000+0  14060-2 0  9998
2 25985  45.0412  10.2525 0001586  43.1169 316.9802 14.35626868293581
ORBCOMM FM34            
1 25986U 99065G   24247.61431303  .00004621  00000+0  16355-2 0  9993
2 25986  45.0407  10.9328 0002964 316.9584  43.1032 14.35622630293696
ORBCOMM FM38            
1 33060U 08031A   24247.44403181  .00006902  00000+0  96287-3 0  9999
2 33060  48.4386 239.2137 0005528 255.9253 104.1047 14.78483319872276
ORBCOMM FM41            
1 33061U 08031B   24247.54062800  .00006987  00000+0  98094-3 0  9991
2 33061  48.4422 245.6544 0004598 243.5861 271.9312 14.78200856871781
ORBCOMM FM29            
1 33062U 08031C   24247.53060642  .00006887  00000+0  96806-3 0  9991
2 33062  48.4376 253.7313 0006399 240.5120 261.5629 14.78161460871693
ORBCOMM FM39            
1 33063U 08031D   24247.55207228  .00005679  00000+0  82443-3 0  9997
2 33063  48.4392 275.0715 0007143 214.7962 145.2485 14.77049993871389
