<?xml version="1.0" encoding="UTF-8"?>
<ndm xmlns:xsi="http://www.w3.org/2001/XMLSchema-instance" xsi:noNamespaceSchemaLocation="https://sanaregistry.org/r/ndmxml_unqualified/ndmxml-2.0.0-master-2.0.xsd">
<omm id="CCSDS_OMM_VERS" version="2.0">
<header><CREATION_DATE/><ORIGINATOR/></header><body><segment><metadata><OBJECT_NAME>ORBCOMM FM33</OBJECT_NAME><OBJECT_ID>1999-065D</OBJECT_ID><CENTER_NAME>EARTH</CENTER_NAME><REF_FRAME>TEME</REF_FRAME><TIME_SYSTEM>UTC</TIME_SYSTEM><MEAN_ELEMENT_THEORY>SGP4</MEAN_ELEMENT_THEORY></metadata><data><meanElements><EPOCH>2024-09-03T11:47:02.524416</EPOCH><MEAN_MOTION>14.38256061</MEAN_MOTION><ECCENTRICITY>.0006835</ECCENTRICITY><INCLINATION>45.0278</INCLINATION><RA_OF_ASC_NODE>280.4170</RA_OF_ASC_NODE><ARG_OF_PERICENTER>45.6862</ARG_OF_PERICENTER><MEAN_ANOMALY>314.4546</MEAN_ANOMALY></meanElements><tleParameters><EPHEMERIS_TYPE>0</EPHEMERIS_TYPE><CLASSIFICATION_TYPE>U</CLASSIFICATION_TYPE><NORAD_CAT_ID>25983</NORAD_CAT_ID><ELEMENT_SET_NO>999</ELEMENT_SET_NO><REV_AT_EPOCH>29476</REV_AT_EPOCH><BSTAR>.12894E-2</BSTAR><MEAN_MOTION_DOT>.3817E-4</MEAN_MOTION_DOT><MEAN_MOTION_DDOT>0</MEAN_MOTION_DDOT></tleParameters></data></segment></body></omm>
<omm id="CCSDS_OMM_VERS" version="2.0">
<header><CREATION_DATE/><ORIGINATOR/></header><body><segment><metadata><OBJECT_NAME>ORBCOMM FM36</OBJECT_NAME><OBJECT_ID>1999-065E</OBJECT_ID><CENTER_NAME>EARTH</CENTER_NAME><REF_FRAME>TEME</REF_FRAME><TIME_SYSTEM>UTC</TIME_SYSTEM><MEAN_ELEMENT_THEORY>SGP4</MEAN_ELEMENT_THEORY></metadata><data><meanElements><EPOCH>2024-09-03T13:26:22.893216</EPOCH><MEAN_MOTION>14.36226620</MEAN_MOTION><ECCENTRICITY>.0004325</ECCENTRICITY><INCLINATION>45.0411</INCLINATION><RA_OF_ASC_NODE>7.5492</RA_OF_ASC_NODE><ARG_OF_PERICENTER>272.2694</ARG_OF_PERICENTER><MEAN_ANOMALY>87.7659</MEAN_ANOMALY></meanElements><tleParameters><EPHEMERIS_TYPE>0</EPHEMERIS_TYPE><CLASSIFICATION_TYPE>U</CLASSIFICATION_TYPE><NORAD_CAT_ID>25984</NORAD_CAT_ID><ELEMENT_SET_NO>999</ELEMENT_SET_NO><REV_AT_EPOCH>29318</REV_AT_EPOCH><BSTAR>.19134E-2</BSTAR><MEAN_MOTION_DOT>.5499E-4</MEAN_MOTION_DOT><MEAN_MOTION_DDOT>0</MEAN_MOTION_DDOT></tleParameters></data></segment></body></omm>
<omm id="CCSDS_OMM_VERS" version="2.0">
<header><CREATION_DATE/><ORIGINATOR/></header><body><segment><metadata><OBJECT_NAME>ORBCOMM FM35</OBJECT_NAME><OBJECT_ID>1999-065F</OBJECT_ID><CENTER_NAME>EARTH</CENTER_NAME><REF_FRAME>TEME</REF_FRAME><TIME_SYSTEM>UTC</TIME_SYSTEM><MEAN_ELEMENT_THEORY>SGP4</MEAN_ELEMENT_THEORY></metadata><data><meanElements><EPOCH>2024-09-03T15:24:34.274304</EPOCH><MEAN_MOTION>14.35626868</MEAN_MOTION><ECCENTRICITY>.0001586</ECCENTRICITY><INCLINATION>45.0412</INCLINATION><RA_OF_ASC_NODE>10.2525</RA_OF_ASC_NODE><ARG_OF_PERICENTER>43.1169</ARG_OF_PERICENTER><MEAN_ANOMALY>316.9802</MEAN_ANOMALY></meanElements><tleParameters><EPHEMERIS_TYPE>0</EPHEMERIS_TYPE><CLASSIFICATION_TYPE>U</CLASSIFICATION_TYPE><NORAD_CAT_ID>25985</NORAD_CAT_ID><ELEMENT_SET_NO>999</ELEMENT_SET_NO><REV_AT_EPOCH>29358</REV_AT_EPOCH><BSTAR>.1406E-2</BSTAR><MEAN_MOTION_DOT>.3952E-4</MEAN_MOTION_DOT><MEAN_MOTION_DDOT>0</MEAN_MOTION_DDOT></tleParameters></data></segment></body></omm>
<omm id="CCSDS_OMM_VERS" version="2.0">
<header><CREATION_DATE/><ORIGINATOR/></header><body><segment><metadata><OBJECT_NAME>ORBCOMM FM34</OBJECT_NAME><OBJECT_ID>1999-065G</OBJECT_ID><CENTER_NAME>EARTH</CENTER_NAME><REF_FRAME>TEME</REF_FRAME><TIME_SYSTEM>UTC</TIME_SYSTEM><MEAN_ELEMENT_THEORY>SGP4</MEAN_ELEMENT_THEORY></metadata><data><meanElements><EPOCH>2024-09-03T14:44:36.645792</EPOCH><MEAN_MOTION>14.35622630</MEAN_MOTION><ECCENTRICITY>.0002964</ECCENTRICITY><INCLINATION>45.0407</INCLINATION><RA_OF_ASC_NODE>10.9328</RA_OF_ASC_NODE><ARG_OF_PERICENTER>316.9584</ARG_OF_PERICENTER><MEAN_ANOMALY>43.1032</MEAN_ANOMALY></meanElements><tleParameters><EPHEMERIS_TYPE>0</EPHEMERIS_TYPE><CLASSIFICATION_TYPE>U</CLASSIFICATION_TYPE><NORAD_CAT_ID>25986</NORAD_CAT_ID><ELEMENT_SET_NO>999</ELEMENT_SET_NO><REV_AT_EPOCH>29369</REV_AT_EPOCH><BSTAR>.16355E-2</BSTAR><MEAN_MOTION_DOT>.4621E-4</MEAN_MOTION_DOT><MEAN_MOTION_DDOT>0</MEAN_MOTION_DDOT></tleParameters></data></segment></body></omm>
<omm id="CCSDS_OMM_VERS" version="2.0">
<header><CREATION_DATE/><ORIGINATOR/></header><body><segment><metadata><OBJECT_NAME>ORBCOMM FM38</OBJECT_NAME><OBJECT_ID>2008-031A</OBJECT_ID><CENTER_NAME>EARTH</CENTER_NAME><REF_FRAME>TEME</REF_FRAME><TIME_SYSTEM>UTC</TIME_SYSTEM><MEAN_ELEMENT_THEORY>SGP4</MEAN_ELEMENT_THEORY></metadata><data><meanElements><EPOCH>2024-09-03T10:39:24.348384</EPOCH><MEAN_MOTION>14.78483319</MEAN_MOTION><ECCENTRICITY>.0005528</ECCENTRICITY><INCLINATION>48.4386</INCLINATION><RA_OF_ASC_NODE>239.2137</RA_OF_ASC_NODE><ARG_OF_PERICENTER>255.9253</ARG_OF_PERICENTER><MEAN_ANOMALY>104.1047</MEAN_ANOMALY></meanElements><tleParameters><EPHEMERIS_TYPE>0</EPHEMERIS_TYPE><CLASSIFICATION_TYPE>U</CLASSIFICATION_TYPE><NORAD_CAT_ID>33060</NORAD_CAT_ID><ELEMENT_SET_NO>999</ELEMENT_SET_NO><REV_AT_EPOCH>87227</REV_AT_EPOCH><BSTAR>.96287E-3</BSTAR><MEAN_MOTION_DOT>.6902E-4</MEAN_MOTION_DOT><MEAN_MOTION_DDOT>0</MEAN_MOTION_DDOT></tleParameters></data></segment></body></omm>
<omm id="CCSDS_OMM_VERS" version="2.0">
<header><CREATION_DATE/><ORIGINATOR/></header><body><segment><metadata><OBJECT_NAME>ORBCOMM FM41</OBJECT_NAME><OBJECT_ID>2008-031B</OBJECT_ID><CENTER_NAME>EARTH</CENTER_NAME><REF_FRAME>TEME</REF_FRAME><TIME_SYSTEM>UTC</TIME_SYSTEM><MEAN_ELEMENT_THEORY>SGP4</MEAN_ELEMENT_THEORY></metadata><data><meanElements><EPOCH>2024-09-03T12:58:30.259200</EPOCH><MEAN_MOTION>14.78200856</MEAN_MOTION><ECCENTRICITY>.0004598</ECCENTRICITY><INCLINATION>48.4422</INCLINATION><RA_OF_ASC_NODE>245.6544</RA_OF_ASC_NODE><ARG_OF_PERICENTER>243.5861</ARG_OF_PERICENTER><MEAN_ANOMALY>271.9312</MEAN_ANOMALY></meanElements><tleParameters><EPHEMERIS_TYPE>0</EPHEMERIS_TYPE><CLASSIFICATION_TYPE>U</CLASSIFICATION_TYPE><NORAD_CAT_ID>33061</NORAD_CAT_ID><ELEMENT_SET_NO>999</ELEMENT_SET_NO><REV_AT_EPOCH>87178</REV_AT_EPOCH><BSTAR>.98094E-3</BSTAR><MEAN_MOTION_DOT>.6987E-4</MEAN_MOTION_DOT><MEAN_MOTION_DDOT>0</MEAN_MOTION_DDOT></tleParameters></data></segment></body></omm>
<omm id="CCSDS_OMM_VERS" version="2.0">
<header><CREATION_DATE/><ORIGINATOR/></header><body><segment><metadata><OBJECT_NAME>ORBCOMM FM29</OBJECT_NAME><OBJECT_ID>2008-031C</OBJECT_ID><CENTER_NAME>EARTH</CENTER_NAME><REF_FRAME>TEME</REF_FRAME><TIME_SYSTEM>UTC</TIME_SYSTEM><MEAN_ELEMENT_THEORY>SGP4</MEAN_ELEMENT_THEORY></metadata><data><meanElements><EPOCH>2024-09-03T12:44:04.394688</EPOCH><MEAN_MOTION>14.78161460</MEAN_MOTION><ECCENTRICITY>.0006399</ECCENTRICITY><INCLINATION>48.4376</INCLINATION><RA_OF_ASC_NODE>253.7313</RA_OF_ASC_NODE><ARG_OF_PERICENTER>240.5120</ARG_OF_PERICENTER><MEAN_ANOMALY>261.5629</MEAN_ANOMALY></meanElements><tleParameters><EPHEMERIS_TYPE>0</EPHEMERIS_TYPE><CLASSIFICATION_TYPE>U</CLASSIFICATION_TYPE><NORAD_CAT_ID>33062</NORAD_CAT_ID><ELEMENT_SET_NO>999</ELEMENT_SET_NO><REV_AT_EPOCH>87169</REV_AT_EPOCH><BSTAR>.96806E-3</BSTAR><MEAN_MOTION_DOT>.6887E-4</MEAN_MOTION_DOT><MEAN_MOTION_DDOT>0</MEAN_MOTION_DDOT></tleParameters></data></segment></body></omm>
<omm id="CCSDS_OMM_VERS" version="2.0">
<header><CREATION_DATE/><ORIGINATOR/></header><body><segment><metadata><OBJECT_NAME>ORBCOMM FM39</OBJECT_NAME><OBJECT_ID>2008-031D</OBJECT_ID><CENTER_NAME>EARTH</CENTER_NAME><REF_FRAME>TEME</REF_FRAME><TIME_SYSTEM>UTC</TIME_SYSTEM><MEAN_ELEMENT_THEORY>SGP4</MEAN_ELEMENT_THEORY></metadata><data><meanElements><EPOCH>2024-09-03T13:14:59.044992</EPOCH><MEAN_MOTION>14.77049993</MEAN_MOTION><ECCENTRICITY>.0007143</ECCENTRICITY><INCLINATION>48.4392</INCLINATION><RA_OF_ASC_NODE>275.0715</RA_OF_ASC_NODE><ARG_OF_PERICENTER>214.7962</ARG_OF_PERICENTER><MEAN_ANOMALY>145.2485</MEAN_ANOMALY></meanElements><tleParameters><EPHEMERIS_TYPE>0</EPHEMERIS_TYPE><CLASSIFICATION_TYPE>U</CLASSIFICATION_TYPE><NORAD_CAT_ID>33063</NORAD_CAT_ID><ELEMENT_SET_NO>999</ELEMENT_SET_NO><REV_AT_EPOCH>87138</REV_AT_EPOCH><BSTAR>.82443E-3</BSTAR><MEAN_MOTION_DOT>.5679E-4</MEAN_MOTION_DOT><MEAN_MOTION_DDOT>0</MEAN_MOTION_DDOT></tleParameters></data></segment></body></omm>

</ndm>
